start=new Date('2022-03-09T00:00:00.000Z').valueOf();
sats=[{"OBJECT_NAME":"STARLINK-1423","APOAPSIS":"548.639","DECAY_DATE":null,"PERIAPSIS":"545.812","REV_AT_EPOCH":"9882","ELEMENT_SET_NO":"999","OBJECT_ID":"2020-035BF","LAUNCH_DATE":"2020-06-04","EPOCH":"2022-03-08T21:05:39.244416","SEMIMAJOR_AXIS":"6925.360","COUNTRY_CODE":"US","EPHEMERIS_TYPE":"0","PERIOD":"95.592","MEAN_ANOMALY":"310.6464","ARG_OF_PERICENTER":"49.4702","MEAN_ELEMENT_THEORY":"SGP4","MEAN_MOTION":"15.06396250","GP_ID":"198270867","ECCENTRICITY":"0.00020410","MEAN_MOTION_DDOT":"0.0000000000000","NORAD_CAT_ID":"45710","MEAN_MOTION_DOT":"0.00002473","TLE_LINE2":"2 45710  53.0537 118.9367 0002041  49.4702 310.6464 15.06396250 98828","CENTER_NAME":"EARTH","CLASSIFICATION_TYPE":"U","BSTAR":"0.00018489000000","OBJECT_TYPE":"PAYLOAD","SITE":"AFETR","REF_FRAME":"TEME","TLE_LINE1":"1 45710U 20035BF  22067.87892644  .00002473  00000-0  18489-3 0  9991","RA_OF_ASC_NODE":"118.9367","TIME_SYSTEM":"UTC","RCS_SIZE":"LARGE","INCLINATION":"53.0537","FILE":"3351330"},{"TLE_LINE2":"2 45711  53.0528 119.0265 0001819  51.4892 308.6260 15.06379116 98815","CENTER_NAME":"EARTH","NORAD_CAT_ID":"45711","MEAN_MOTION_DOT":"-0.00001232","CLASSIFICATION_TYPE":"U","BSTAR":"-0.00006385100000","MEAN_MOTION_DDOT":"0.0000000000000","MEAN_ELEMENT_THEORY":"SGP4","ARG_OF_PERICENTER":"51.4892","GP_ID":"198272119","ECCENTRICITY":"0.00018190","MEAN_MOTION":"15.06379116","MEAN_ANOMALY":"308.6260","PERIOD":"95.593","FILE":"3351330","INCLINATION":"53.0528","TIME_SYSTEM":"UTC","RCS_SIZE":"LARGE","RA_OF_ASC_NODE":"119.0265","REF_FRAME":"TEME","TLE_LINE1":"1 45711U 20035BG  22067.86050935 -.00001232  00000-0 -63851-4 0  9998","SITE":"AFETR","OBJECT_TYPE":"PAYLOAD","PERIAPSIS":"546.018","REV_AT_EPOCH":"9881","DECAY_DATE":null,"APOAPSIS":"548.537","OBJECT_NAME":"STARLINK-1433","EPHEMERIS_TYPE":"0","COUNTRY_CODE":"US","LAUNCH_DATE":"2020-06-04","SEMIMAJOR_AXIS":"6925.413","EPOCH":"2022-03-08T20:39:08.007840","ELEMENT_SET_NO":"999","OBJECT_ID":"2020-035BG"},{"INCLINATION":"53.0544","FILE":"3351330","RA_OF_ASC_NODE":"119.0484","RCS_SIZE":"LARGE","TIME_SYSTEM":"UTC","REF_FRAME":"TEME","TLE_LINE1":"1 45712U 20035BH  22067.85681708 -.00001490  00000-0 -81175-4 0  9991","OBJECT_TYPE":"PAYLOAD","SITE":"AFETR","MEAN_MOTION_DOT":"-0.00001490","NORAD_CAT_ID":"45712","TLE_LINE2":"2 45712  53.0544 119.0484 0001372  65.4467 294.6665 15.06387207 98828","CENTER_NAME":"EARTH","CLASSIFICATION_TYPE":"U","BSTAR":"-0.00008117500000","MEAN_MOTION_DDOT":"0.0000000000000","ARG_OF_PERICENTER":"65.4467","MEAN_ELEMENT_THEORY":"SGP4","MEAN_MOTION":"15.06387207","GP_ID":"198272370","ECCENTRICITY":"0.00013720","MEAN_ANOMALY":"294.6665","PERIOD":"95.593","EPHEMERIS_TYPE":"0","COUNTRY_CODE":"US","LAUNCH_DATE":"2020-06-04","EPOCH":"2022-03-08T20:33:48.995712","SEMIMAJOR_AXIS":"6925.388","ELEMENT_SET_NO":"999","OBJECT_ID":"2020-035BH","PERIAPSIS":"546.303","REV_AT_EPOCH":"9882","APOAPSIS":"548.203","DECAY_DATE":null,"OBJECT_NAME":"STARLINK-1434"},{"NORAD_CAT_ID":"45713","MEAN_MOTION_DOT":"-0.00003080","TLE_LINE2":"2 45713  53.0534 140.1399 0001432  53.8222 306.2899 15.06382090 98492","CENTER_NAME":"EARTH","BSTAR":"-0.00018806000000","CLASSIFICATION_TYPE":"U","MEAN_MOTION_DDOT":"0.0000000000000","ARG_OF_PERICENTER":"53.8222","MEAN_ELEMENT_THEORY":"SGP4","MEAN_MOTION":"15.06382090","ECCENTRICITY":"0.00014320","GP_ID":"198271118","MEAN_ANOMALY":"306.2899","PERIOD":"95.593","INCLINATION":"53.0534","FILE":"3351330","RA_OF_ASC_NODE":"140.1399","RCS_SIZE":"LARGE","TIME_SYSTEM":"UTC","REF_FRAME":"TEME","TLE_LINE1":"1 45713U 20035BJ  22067.61170422 -.00003080  00000-0 -18806-3 0  9999","OBJECT_TYPE":"PAYLOAD","SITE":"AFETR","PERIAPSIS":"546.277","REV_AT_EPOCH":"9849","APOAPSIS":"548.260","DECAY_DATE":null,"OBJECT_NAME":"STARLINK-1436","EPHEMERIS_TYPE":"0","COUNTRY_CODE":"US","LAUNCH_DATE":"2020-06-04","EPOCH":"2022-03-08T14:40:51.244608","SEMIMAJOR_AXIS":"6925.403","ELEMENT_SET_NO":"999","OBJECT_ID":"2020-035BJ"},{"COUNTRY_CODE":"US","EPHEMERIS_TYPE":"0","OBJECT_ID":"2020-035BK","ELEMENT_SET_NO":"999","SEMIMAJOR_AXIS":"6925.409","EPOCH":"2022-03-08T20:49:45.124032","LAUNCH_DATE":"2020-06-04","PERIAPSIS":"546.244","REV_AT_EPOCH":"9882","OBJECT_NAME":"STARLINK-1437","DECAY_DATE":null,"APOAPSIS":"548.303","TIME_SYSTEM":"UTC","RCS_SIZE":"LARGE","RA_OF_ASC_NODE":"118.9954","FILE":"3351330","INCLINATION":"53.0539","SITE":"AFETR","OBJECT_TYPE":"PAYLOAD","TLE_LINE1":"1 45714U 20035BK  22067.86788338 -.00001398  00000-0 -75046-4 0  9998","REF_FRAME":"TEME","MEAN_MOTION_DDOT":"0.0000000000000","BSTAR":"-0.00007504600000","CLASSIFICATION_TYPE":"U","CENTER_NAME":"EARTH","TLE_LINE2":"2 45714  53.0539 118.9954 0001486  60.6671 299.4467 15.06380409 98824","NORAD_CAT_ID":"45714","MEAN_MOTION_DOT":"-0.00001398","PERIOD":"95.593","MEAN_ANOMALY":"299.4467","GP_ID":"198271368","ECCENTRICITY":"0.00014860","MEAN_MOTION":"15.06380409","MEAN_ELEMENT_THEORY":"SGP4","ARG_OF_PERICENTER":"60.6671"},{"REV_AT_EPOCH":"10173","PERIAPSIS":"293.264","DECAY_DATE":null,"APOAPSIS":"294.597","OBJECT_NAME":"STARLINK-1439","EPHEMERIS_TYPE":"0","COUNTRY_CODE":"US","SEMIMAJOR_AXIS":"6672.065","EPOCH":"2022-03-08T14:38:43.814112","LAUNCH_DATE":"2020-06-04","OBJECT_ID":"2020-035BM","ELEMENT_SET_NO":"999","CLASSIFICATION_TYPE":"U","BSTAR":"0.00179480000000","CENTER_NAME":"EARTH","TLE_LINE2":"2 45716  52.9933 266.8529 0000999  31.0128 329.0956 15.92987426101735","NORAD_CAT_ID":"45716","MEAN_MOTION_DOT":"0.00637993","MEAN_MOTION_DDOT":"0.0001758500000","ECCENTRICITY":"0.00009990","GP_ID":"198217605","MEAN_MOTION":"15.92987426","MEAN_ELEMENT_THEORY":"SGP4","ARG_OF_PERICENTER":"31.0128","PERIOD":"90.396","MEAN_ANOMALY":"329.0956","FILE":"3350947","INCLINATION":"52.9933","TIME_SYSTEM":"UTC","RCS_SIZE":"LARGE","RA_OF_ASC_NODE":"266.8529","TLE_LINE1":"1 45716U 20035BM  22067.61022933  .00637993  17585-3  17948-2 0  9993","REF_FRAME":"TEME","SITE":"AFETR","OBJECT_TYPE":"PAYLOAD"},{"PERIAPSIS":"546.051","REV_AT_EPOCH":"9587","DECAY_DATE":null,"APOAPSIS":"548.525","OBJECT_NAME":"STARLINK-1461","EPHEMERIS_TYPE":"0","COUNTRY_CODE":"US","SEMIMAJOR_AXIS":"6925.423","EPOCH":"2022-03-08T21:05:40.641504","LAUNCH_DATE":"2020-06-13","OBJECT_ID":"2020-038A","ELEMENT_SET_NO":"999","BSTAR":"-0.00009634800000","CLASSIFICATION_TYPE":"U","CENTER_NAME":"EARTH","TLE_LINE2":"2 45730  53.0570 318.9371 0001786  59.7834 300.3332 15.06375786 95872","MEAN_MOTION_DOT":"-0.00001715","NORAD_CAT_ID":"45730","MEAN_MOTION_DDOT":"0.0000000000000","ECCENTRICITY":"0.00017860","GP_ID":"198272371","MEAN_MOTION":"15.06375786","MEAN_ELEMENT_THEORY":"SGP4","ARG_OF_PERICENTER":"59.7834","MEAN_ANOMALY":"300.3332","PERIOD":"95.594","FILE":"3351330","INCLINATION":"53.0570","RCS_SIZE":"LARGE","TIME_SYSTEM":"UTC","RA_OF_ASC_NODE":"318.9371","TLE_LINE1":"1 45730U 20038A   22067.87894261 -.00001715  00000-0 -96348-4 0  9994","REF_FRAME":"TEME","OBJECT_TYPE":"PAYLOAD","SITE":"AFETR"},{"COUNTRY_CODE":"US","EPHEMERIS_TYPE":"0","ELEMENT_SET_NO":"999","OBJECT_ID":"2020-038B","LAUNCH_DATE":"2020-06-13","SEMIMAJOR_AXIS":"6925.479","EPOCH":"2022-03-08T21:26:55.123584","REV_AT_EPOCH":"9586","PERIAPSIS":"546.355","OBJECT_NAME":"STARLINK-1465","DECAY_DATE":null,"APOAPSIS":"548.333","RCS_SIZE":"LARGE","TIME_SYSTEM":"UTC","RA_OF_ASC_NODE":"318.8799","FILE":"3351330","INCLINATION":"53.0539","OBJECT_TYPE":"PAYLOAD","SITE":"AFETR","REF_FRAME":"TEME","TLE_LINE1":"1 45731U 20038B   22067.89369356  .00009679  00000-0  66854-3 0  9992","MEAN_MOTION_DDOT":"0.0000000000000","TLE_LINE2":"2 45731  53.0539 318.8799 0001428  70.5535 289.5609 15.06357382 95869","CENTER_NAME":"EARTH","NORAD_CAT_ID":"45731","MEAN_MOTION_DOT":"0.00009679","CLASSIFICATION_TYPE":"U","BSTAR":"0.00066854000000","PERIOD":"95.595","MEAN_ANOMALY":"289.5609","MEAN_ELEMENT_THEORY":"SGP4","ARG_OF_PERICENTER":"70.5535","GP_ID":"198271119","ECCENTRICITY":"0.00014280","MEAN_MOTION":"15.06357382"},{"REF_FRAME":"TEME","TLE_LINE1":"1 45732U 20038C   22067.94896505 -.00000887  00000-0 -40642-4 0  9992","SITE":"AFETR","OBJECT_TYPE":"PAYLOAD","FILE":"3351330","INCLINATION":"53.0555","TIME_SYSTEM":"UTC","RCS_SIZE":"LARGE","RA_OF_ASC_NODE":"318.6242","MEAN_ELEMENT_THEORY":"SGP4","ARG_OF_PERICENTER":"52.9022","ECCENTRICITY":"0.00016970","GP_ID":"198271369","MEAN_MOTION":"15.06386835","MEAN_ANOMALY":"307.2122","PERIOD":"95.593","TLE_LINE2":"2 45732  53.0555 318.6242 0001697  52.9022 307.2122 15.06386835 95876","CENTER_NAME":"EARTH","MEAN_MOTION_DOT":"-0.00000887","NORAD_CAT_ID":"45732","CLASSIFICATION_TYPE":"U","BSTAR":"-0.00004064200000","MEAN_MOTION_DDOT":"0.0000000000000","LAUNCH_DATE":"2020-06-13","SEMIMAJOR_AXIS":"6925.389","EPOCH":"2022-03-08T22:46:30.580320","ELEMENT_SET_NO":"999","OBJECT_ID":"2020-038C","EPHEMERIS_TYPE":"0","COUNTRY_CODE":"US","DECAY_DATE":null,"APOAPSIS":"548.429","OBJECT_NAME":"STARLINK-1466","PERIAPSIS":"546.079","REV_AT_EPOCH":"9587"},{"INCLINATION":"53.0526","FILE":"3351330","RA_OF_ASC_NODE":"318.6065","RCS_SIZE":"LARGE","TIME_SYSTEM":"UTC","TLE_LINE1":"1 45733U 20038D   22067.95632396  .00008072  00000-0  56024-3 0  9992","REF_FRAME":"TEME","OBJECT_TYPE":"PAYLOAD","SITE":"AFETR","CLASSIFICATION_TYPE":"U","BSTAR":"0.00056024000000","NORAD_CAT_ID":"45733","MEAN_MOTION_DOT":"0.00008072","TLE_LINE2":"2 45733  53.0526 318.6065 0001781  52.0667 308.0483 15.06395597 95872","CENTER_NAME":"EARTH","MEAN_MOTION_DDOT":"0.0000000000000","MEAN_MOTION":"15.06395597","ECCENTRICITY":"0.00017810","GP_ID":"198271620","ARG_OF_PERICENTER":"52.0667","MEAN_ELEMENT_THEORY":"SGP4","PERIOD":"95.592","MEAN_ANOMALY":"308.0483","EPHEMERIS_TYPE":"0","COUNTRY_CODE":"US","EPOCH":"2022-03-08T22:57:06.390144","SEMIMAJOR_AXIS":"6925.362","LAUNCH_DATE":"2020-06-13","OBJECT_ID":"2020-038D","ELEMENT_SET_NO":"999","REV_AT_EPOCH":"9587","PERIAPSIS":"545.994","APOAPSIS":"548.460","DECAY_DATE":null,"OBJECT_NAME":"STARLINK-1467"}];
